start=new Date('2023-01-03T00:00:00.000Z').valueOf();
sats=[{"MEAN_MOTION_DOT":"0.00000316","ECCENTRICITY":"0.00003550","TLE_LINE2":"2 53050  97.6529 186.1836 0000355 227.8769 132.2426 15.01266433 26582","BSTAR":"0.00002921000000","REV_AT_EPOCH":"2658","MEAN_MOTION_DDOT":"0.0000000000000","RA_OF_ASC_NODE":"186.1836","RCS_SIZE":"LARGE","TIME_SYSTEM":"UTC","INCLINATION":"97.6529","OBJECT_TYPE":"PAYLOAD","EPHEMERIS_TYPE":"0","COUNTRY_CODE":"US","PERIAPSIS":"562.746","GP_ID":"222066309","SITE":"AFWTR","LAUNCH_DATE":"2022-07-11","ELEMENT_SET_NO":"999","OBJECT_NAME":"STARLINK-4343","PERIOD":"95.919","NORAD_CAT_ID":"53050","DECAY_DATE":null,"EPOCH":"2023-01-02T17:59:08.515968","MEAN_MOTION":"15.01266433","CLASSIFICATION_TYPE":"U","CENTER_NAME":"EARTH","OBJECT_ID":"2022-077H","MEAN_ANOMALY":"132.2426","REF_FRAME":"TEME","FILE":"3729873","MEAN_ELEMENT_THEORY":"SGP4","SEMIMAJOR_AXIS":"6941.127","APOAPSIS":"563.238","TLE_LINE1":"1 53050U 22077H   23002.74940412  .00000316  00000-0  29210-4 0  9997","ARG_OF_PERICENTER":"227.8769"},{"INCLINATION":"97.6538","EPHEMERIS_TYPE":"0","OBJECT_TYPE":"PAYLOAD","PERIAPSIS":"562.025","COUNTRY_CODE":"US","GP_ID":"222066535","SITE":"AFWTR","LAUNCH_DATE":"2022-07-11","ELEMENT_SET_NO":"999","ECCENTRICITY":"0.00014070","MEAN_MOTION_DOT":"0.00000619","TLE_LINE2":"2 53051  97.6538 186.2438 0001407 159.8625 200.2655 15.01263222 26590","BSTAR":"0.00005279900000","MEAN_MOTION_DDOT":"0.0000000000000","REV_AT_EPOCH":"2659","RA_OF_ASC_NODE":"186.2438","RCS_SIZE":"LARGE","TIME_SYSTEM":"UTC","REF_FRAME":"TEME","APOAPSIS":"563.979","SEMIMAJOR_AXIS":"6941.137","MEAN_ELEMENT_THEORY":"SGP4","FILE":"3729873","ARG_OF_PERICENTER":"159.8625","TLE_LINE1":"1 53051U 22077J   23002.81049295  .00000619  00000-0  52799-4 0  9999","OBJECT_NAME":"STARLINK-4336","PERIOD":"95.919","NORAD_CAT_ID":"53051","DECAY_DATE":null,"EPOCH":"2023-01-02T19:27:06.590880","MEAN_MOTION":"15.01263222","CLASSIFICATION_TYPE":"U","CENTER_NAME":"EARTH","MEAN_ANOMALY":"200.2655","OBJECT_ID":"2022-077J"},{"CLASSIFICATION_TYPE":"U","EPOCH":"2023-01-02T19:32:27.446784","MEAN_MOTION":"15.01255826","NORAD_CAT_ID":"53052","DECAY_DATE":null,"PERIOD":"95.920","OBJECT_NAME":"STARLINK-4341","OBJECT_ID":"2022-077K","MEAN_ANOMALY":"172.3201","CENTER_NAME":"EARTH","SEMIMAJOR_AXIS":"6941.160","APOAPSIS":"563.712","MEAN_ELEMENT_THEORY":"SGP4","FILE":"3729873","REF_FRAME":"TEME","ARG_OF_PERICENTER":"187.8008","TLE_LINE1":"1 53052U 22077K   23002.81420656 -.00000300  00000-0 -18798-4 0  9994","BSTAR":"-0.00001879800000","TLE_LINE2":"2 53052  97.6531 186.2501 0000990 187.8008 172.3201 15.01255826 26594","ECCENTRICITY":"0.00009900","MEAN_MOTION_DOT":"-0.00000300","TIME_SYSTEM":"UTC","RCS_SIZE":"LARGE","RA_OF_ASC_NODE":"186.2501","REV_AT_EPOCH":"2659","MEAN_MOTION_DDOT":"0.0000000000000","GP_ID":"222067661","PERIAPSIS":"562.338","COUNTRY_CODE":"US","EPHEMERIS_TYPE":"0","OBJECT_TYPE":"PAYLOAD","INCLINATION":"97.6531","ELEMENT_SET_NO":"999","LAUNCH_DATE":"2022-07-11","SITE":"AFWTR"},{"REF_FRAME":"TEME","SEMIMAJOR_AXIS":"6941.123","APOAPSIS":"563.615","MEAN_ELEMENT_THEORY":"SGP4","FILE":"3729873","ARG_OF_PERICENTER":"159.3701","TLE_LINE1":"1 53053U 22077L   23002.80681074  .00005141  00000-0  40446-3 0  9997","PERIOD":"95.919","OBJECT_NAME":"STARLINK-4337","MEAN_MOTION":"15.01267653","EPOCH":"2023-01-02T19:21:48.447936","CLASSIFICATION_TYPE":"U","NORAD_CAT_ID":"53053","DECAY_DATE":null,"CENTER_NAME":"EARTH","OBJECT_ID":"2022-077L","MEAN_ANOMALY":"200.7560","EPHEMERIS_TYPE":"0","OBJECT_TYPE":"PAYLOAD","INCLINATION":"97.6563","GP_ID":"222067886","PERIAPSIS":"562.361","COUNTRY_CODE":"US","SITE":"AFWTR","ELEMENT_SET_NO":"999","LAUNCH_DATE":"2022-07-11","TLE_LINE2":"2 53053  97.6563 186.2401 0000903 159.3701 200.7560 15.01267653 26592","ECCENTRICITY":"0.00009030","MEAN_MOTION_DOT":"0.00005141","BSTAR":"0.00040446000000","RA_OF_ASC_NODE":"186.2401","MEAN_MOTION_DDOT":"0.0000000000000","REV_AT_EPOCH":"2659","TIME_SYSTEM":"UTC","RCS_SIZE":"LARGE"},{"TLE_LINE1":"1 53054U 22077M   23002.81235301 -.00000864  00000-0 -62672-4 0  9992","ARG_OF_PERICENTER":"169.3117","REF_FRAME":"TEME","FILE":"3729873","MEAN_ELEMENT_THEORY":"SGP4","SEMIMAJOR_AXIS":"6941.158","APOAPSIS":"563.688","CENTER_NAME":"EARTH","MEAN_ANOMALY":"190.8128","OBJECT_ID":"2022-077M","PERIOD":"95.920","OBJECT_NAME":"STARLINK-4339","CLASSIFICATION_TYPE":"U","EPOCH":"2023-01-02T19:29:47.300064","MEAN_MOTION":"15.01256295","NORAD_CAT_ID":"53054","DECAY_DATE":null,"SITE":"AFWTR","ELEMENT_SET_NO":"999","LAUNCH_DATE":"2022-07-11","OBJECT_TYPE":"PAYLOAD","EPHEMERIS_TYPE":"0","INCLINATION":"97.6529","GP_ID":"222066760","COUNTRY_CODE":"US","PERIAPSIS":"562.358","RA_OF_ASC_NODE":"186.2453","MEAN_MOTION_DDOT":"0.0000000000000","REV_AT_EPOCH":"2659","TIME_SYSTEM":"UTC","RCS_SIZE":"LARGE","TLE_LINE2":"2 53054  97.6529 186.2453 0000958 169.3117 190.8128 15.01256295 26593","MEAN_MOTION_DOT":"-0.00000864","ECCENTRICITY":"0.00009580","BSTAR":"-0.00006267200000"},{"SITE":"AFWTR","ELEMENT_SET_NO":"999","LAUNCH_DATE":"2022-07-11","EPHEMERIS_TYPE":"0","OBJECT_TYPE":"PAYLOAD","INCLINATION":"97.6550","GP_ID":"222066985","PERIAPSIS":"561.779","COUNTRY_CODE":"US","RA_OF_ASC_NODE":"186.2364","MEAN_MOTION_DDOT":"0.0000000000000","REV_AT_EPOCH":"2659","TIME_SYSTEM":"UTC","RCS_SIZE":"LARGE","TLE_LINE2":"2 53055  97.6550 186.2364 0001753 136.6408 223.4955 15.01265163 26598","ECCENTRICITY":"0.00017530","MEAN_MOTION_DOT":"0.00004483","BSTAR":"0.00035335000000","ARG_OF_PERICENTER":"136.6408","TLE_LINE1":"1 53055U 22077N   23002.80496255  .00004483  00000-0  35335-3 0  9993","REF_FRAME":"TEME","APOAPSIS":"564.213","SEMIMAJOR_AXIS":"6941.131","MEAN_ELEMENT_THEORY":"SGP4","FILE":"3729873","CENTER_NAME":"EARTH","OBJECT_ID":"2022-077N","MEAN_ANOMALY":"223.4955","PERIOD":"95.919","OBJECT_NAME":"STARLINK-4338","EPOCH":"2023-01-02T19:19:08.764320","MEAN_MOTION":"15.01265163","CLASSIFICATION_TYPE":"U","DECAY_DATE":null,"NORAD_CAT_ID":"53055"},{"INCLINATION":"97.6525","EPHEMERIS_TYPE":"0","OBJECT_TYPE":"PAYLOAD","PERIAPSIS":"562.329","COUNTRY_CODE":"US","GP_ID":"222067211","SITE":"AFWTR","LAUNCH_DATE":"2022-07-11","ELEMENT_SET_NO":"999","ECCENTRICITY":"0.00009440","MEAN_MOTION_DOT":"0.00001041","TLE_LINE2":"2 53056  97.6525 186.2406 0000944 171.3154 188.8087 15.01269098 26594","BSTAR":"0.00008563200000","MEAN_MOTION_DDOT":"0.0000000000000","REV_AT_EPOCH":"2659","RA_OF_ASC_NODE":"186.2406","RCS_SIZE":"LARGE","TIME_SYSTEM":"UTC","REF_FRAME":"TEME","SEMIMAJOR_AXIS":"6941.119","APOAPSIS":"563.639","MEAN_ELEMENT_THEORY":"SGP4","FILE":"3729873","ARG_OF_PERICENTER":"171.3154","TLE_LINE1":"1 53056U 22077P   23002.80864727  .00001041  00000-0  85632-4 0  9990","OBJECT_NAME":"STARLINK-4314","PERIOD":"95.919","NORAD_CAT_ID":"53056","DECAY_DATE":null,"EPOCH":"2023-01-02T19:24:27.124128","CLASSIFICATION_TYPE":"U","MEAN_MOTION":"15.01269098","CENTER_NAME":"EARTH","OBJECT_ID":"2022-077P","MEAN_ANOMALY":"188.8087"},{"RCS_SIZE":"LARGE","TIME_SYSTEM":"UTC","MEAN_MOTION_DDOT":"0.0000000000000","REV_AT_EPOCH":"2656","RA_OF_ASC_NODE":"186.0361","BSTAR":"0.00001042700000","MEAN_MOTION_DOT":"0.00000075","ECCENTRICITY":"0.00010030","TLE_LINE2":"2 53057  97.6552 186.0361 0001003  72.9388 287.1946 15.01261531 26563","LAUNCH_DATE":"2022-07-11","ELEMENT_SET_NO":"999","SITE":"AFWTR","COUNTRY_CODE":"US","PERIAPSIS":"562.311","GP_ID":"222067437","INCLINATION":"97.6552","OBJECT_TYPE":"PAYLOAD","EPHEMERIS_TYPE":"0","OBJECT_ID":"2022-077Q","MEAN_ANOMALY":"287.1946","CENTER_NAME":"EARTH","NORAD_CAT_ID":"53057","DECAY_DATE":null,"MEAN_MOTION":"15.01261531","CLASSIFICATION_TYPE":"U","EPOCH":"2023-01-02T14:25:51.617568","OBJECT_NAME":"STARLINK-4252","PERIOD":"95.919","TLE_LINE1":"1 53057U 22077Q   23002.60129187  .00000075  00000-0  10427-4 0  9999","ARG_OF_PERICENTER":"72.9388","FILE":"3729873","MEAN_ELEMENT_THEORY":"SGP4","SEMIMAJOR_AXIS":"6941.142","APOAPSIS":"563.703","REF_FRAME":"TEME"},{"CENTER_NAME":"EARTH","OBJECT_ID":"2022-077R","MEAN_ANOMALY":"221.1809","PERIOD":"95.919","OBJECT_NAME":"STARLINK-4317","MEAN_MOTION":"15.01261885","EPOCH":"2023-01-02T17:43:29.244288","CLASSIFICATION_TYPE":"U","DECAY_DATE":null,"NORAD_CAT_ID":"53058","ARG_OF_PERICENTER":"138.9514","TLE_LINE1":"1 53058U 22077R   23002.73853292  .00000817  00000-0  68211-4 0  9993","REF_FRAME":"TEME","APOAPSIS":"563.915","SEMIMAJOR_AXIS":"6941.141","MEAN_ELEMENT_THEORY":"SGP4","FILE":"3729873","RA_OF_ASC_NODE":"186.1716","REV_AT_EPOCH":"2658","MEAN_MOTION_DDOT":"0.0000000000000","TIME_SYSTEM":"UTC","RCS_SIZE":"LARGE","TLE_LINE2":"2 53058  97.6541 186.1716 0001310 138.9514 221.1809 15.01261885 26582","ECCENTRICITY":"0.00013100","MEAN_MOTION_DOT":"0.00000817","BSTAR":"0.00006821100000","SITE":"AFWTR","ELEMENT_SET_NO":"999","LAUNCH_DATE":"2022-07-11","EPHEMERIS_TYPE":"0","OBJECT_TYPE":"PAYLOAD","INCLINATION":"97.6541","GP_ID":"222066310","PERIAPSIS":"562.097","COUNTRY_CODE":"US"},{"FILE":"3729583","MEAN_ELEMENT_THEORY":"SGP4","APOAPSIS":"563.468","SEMIMAJOR_AXIS":"6941.146","REF_FRAME":"TEME","TLE_LINE1":"1 53059U 22077S   23002.46452955 -.00001150  00000-0 -84988-4 0  9997","ARG_OF_PERICENTER":"47.1033","CLASSIFICATION_TYPE":"U","EPOCH":"2023-01-02T11:08:55.353120","MEAN_MOTION":"15.01260261","NORAD_CAT_ID":"53059","DECAY_DATE":null,"PERIOD":"95.919","OBJECT_NAME":"STARLINK-4320","OBJECT_ID":"2022-077S","MEAN_ANOMALY":"313.0246","CENTER_NAME":"EARTH","GP_ID":"222033478","COUNTRY_CODE":"US","PERIAPSIS":"562.554","OBJECT_TYPE":"PAYLOAD","EPHEMERIS_TYPE":"0","INCLINATION":"97.6559","ELEMENT_SET_NO":"999","LAUNCH_DATE":"2022-07-11","SITE":"AFWTR","BSTAR":"-0.00008498800000","TLE_LINE2":"2 53059  97.6559 185.9007 0000659  47.1033 313.0246 15.01260261 26543","MEAN_MOTION_DOT":"-0.00001150","ECCENTRICITY":"0.00006590","TIME_SYSTEM":"UTC","RCS_SIZE":"LARGE","RA_OF_ASC_NODE":"185.9007","REV_AT_EPOCH":"2654","MEAN_MOTION_DDOT":"0.0000000000000"}];
